NORAD_CAT_ID,OBJECT_NAME,OBJECT_TYPE,EPOCH,MEAN_MOTION,ECCENTRICITY,INCLINATION,RA_OF_ASC_NODE,ARG_OF_PERICENTER,MEAN_ANOMALY,BSTAR,MEAN_MOTION_DOT,MEAN_MOTION_DDOT,TLE_LINE0,TLE_LINE1,TLE_LINE2,SEMIMAJOR_AXIS,PERIOD,APOGEE,PERIGEE,DECAYED
50197.0,STARLINK-3267,PAYLOAD,2022-11-20 18:51:24,15.08837276,0.0002915,53.2167,248.1592,31.5781,328.5386,0.00014519,2.023e-05,0.0,0 STARLINK-3267,1 50197U 21125AT  22324.78570175  .00002023  00000-0  14519-3 0  9996,2 50197  53.2167 248.1592 0002915  31.5781 328.5386 15.08837276 54888,6917.889,95.438,541.77,537.737,0.0
50197.0,STARLINK-3267,PAYLOAD,2022-11-21 04:23:43,15.08836384,0.0002784,53.2164,246.3753,16.2124,343.8957,0.0001879,2.703e-05,0.0,0 STARLINK-3267,1 50197U 21125AT  22325.18314135  .00002703  00000-0  18790-3 0  9993,2 50197  53.2164 246.3753 0002784  16.2124 343.8957 15.08836384 54411,6917.891,95.438,541.682,537.831,0.0
50197.0,STARLINK-3267,PAYLOAD,2022-11-22 04:14:29,15.08847385,0.0002352,53.2179,241.9117,37.1363,322.9791,0.0001471,2.054e-05,0.0,0 STARLINK-3267,1 50197U 21125AT  22326.17673281  .00002054  00000-0  14710-3 0  9990,2 50197  53.2179 241.9117 0002352  37.1363 322.9791 15.08847385 54563,6917.858,95.437,541.35,538.096,0.0
50197.0,STARLINK-3267,PAYLOAD,2022-11-23 04:05:17,15.08837051,0.0002541,53.2172,237.4545,31.5668,328.5476,-3.4524000000000004e-05,-8.38e-06,0.0,0 STARLINK-3267,1 50197U 21125AT  22327.17033963 -.00000838  00000-0 -34524-4 0  9994,2 50197  53.2172 237.4545 0002541  31.5668 328.5476 15.08837051 54715,6917.889,95.438,541.512,537.997,0.0
50197.0,STARLINK-3267,PAYLOAD,2022-11-23 21:34:31,15.08844393,0.0002759,53.2169,234.1834,30.4197,329.6954,-5.1156e-05,-1.103e-05,0.0,0 STARLINK-3267,1 50197U 21125AT  22327.89897804 -.00001103  00000-0 -51156-4 0  9991,2 50197  53.2169 234.1834 0002759  30.4197 329.6954 15.08844393 55353,6917.8669999999975,95.437,541.641,537.823,0.0
50197.0,STARLINK-3267,PAYLOAD,2022-11-24 02:20:40,15.08845699,0.0002734,53.2169,233.291,31.6895,328.4261,-4.4587e-05,-9.98e-06,0.0,0 STARLINK-3267,1 50197U 21125AT  22328.09769604 -.00000998  00000-0 -44587-4 0  9991,2 50197  53.2169 233.2910 0002734  31.6895 328.4261 15.08845699 54851,6917.863,95.437,541.619,537.837,0.0
50197.0,STARLINK-3267,PAYLOAD,2022-11-24 10:17:36,15.08850997,0.00027,53.2169,231.8038,33.2743,326.8419,2.4032e-06,-2.5e-06,0.0,0 STARLINK-3267,1 50197U 21125AT  22328.42888984 -.00000250  00000-0  24032-5 0  9995,2 50197  53.2169 231.8038 0002700  33.2743 326.8419 15.08850997 55438,6917.847,95.437,541.58,537.844,0.0
50197.0,STARLINK-3267,PAYLOAD,2022-11-25 03:46:51,15.08831136,0.0002369,53.2172,228.5323,40.5354,319.5814,6.256899999999999e-05,7.07e-06,0.0,0 STARLINK-3267,1 50197U 21125AT  22329.15753958  .00000707  00000-0  62569-4 0  9990,2 50197  53.2172 228.5323 0002369  40.5354 319.5814 15.08831136 55018,6917.906999999997,95.438,541.411,538.134,0.0
50197.0,STARLINK-3267,PAYLOAD,2022-11-25 10:08:23,15.08835526,0.0002303,53.2174,227.3434,41.9987,318.1182,0.00011507,1.543e-05,0.0,0 STARLINK-3267,1 50197U 21125AT  22329.42249593  .00001543  00000-0  11507-3 0  9999,2 50197  53.2174 227.3434 0002303  41.9987 318.1182 15.08835526 55587,6917.894,95.438,541.352,538.1659999999998,0.0
50197.0,STARLINK-3267,PAYLOAD,2022-11-26 03:37:38,15.08840934,0.0002307,53.2175,224.0725,44.3099,315.8077,3.2184e-05,2.24e-06,0.0,0 STARLINK-3267,1 50197U 21125AT  22330.15113662  .00000224  00000-0  32184-4 0  9998,2 50197  53.2175 224.0725 0002307  44.3099 315.8077 15.08840934 55160,6917.878000000002,95.437,541.3380000000002,538.1469999999998,0.0
50197.0,STARLINK-3267,PAYLOAD,2022-11-26 09:59:10,15.08845122,0.0002434,53.2178,222.8832,42.5419,317.5761,7.3576e-05,8.83e-06,0.0,0 STARLINK-3267,1 50197U 21125AT  22330.41609250  .00000883  00000-0  73576-4 0  9991,2 50197  53.2178 222.8832 0002434  42.5419 317.5761 15.08845122 55731,6917.865,95.437,541.414,538.0459999999998,0.0
50197.0,STARLINK-3267,PAYLOAD,2022-11-26 17:56:05,15.088490900000002,0.0002386,53.2176,221.3958,40.815,319.3021,0.00016227,2.296e-05,0.0,0 STARLINK-3267,1 50197U 21125AT  22330.74728559  .00002296  00000-0  16227-3 0  9990,2 50197  53.2176 221.3958 0002386  40.8150 319.3021 15.08849090 55255,6917.853,95.437,541.368,538.067,0.0
50197.0,STARLINK-3267,PAYLOAD,2022-11-27 03:28:24,15.08843296,0.0002487,53.2172,219.6116,37.4325,322.684,3.7498e-05,3.08e-06,0.0,0 STARLINK-3267,1 50197U 21125AT  22331.14473205  .00000308  00000-0  37498-4 0  9996,2 50197  53.2172 219.6116 0002487  37.4325 322.6840 15.08843296 55310,6917.87,95.437,541.456,538.015,0.0
50197.0,STARLINK-3267,PAYLOAD,2022-11-27 09:49:57,15.08836338,0.0002484,53.2177,218.4222,38.1526,321.9642,-1.9649e-05,-6.01e-06,0.0,0 STARLINK-3267,1 50197U 21125AT  22331.40969842 -.00000601  00000-0 -19649-4 0  9998,2 50197  53.2177 218.4222 0002484  38.1526 321.9642 15.08836338 55353,6917.892,95.438,541.475,538.038,0.0
50197.0,STARLINK-3267,PAYLOAD,2022-11-27 16:11:30,15.08836108,0.0002765,53.2166,217.2309,43.0775,317.0433,-7.6118e-05,-1.5e-05,0.0,0 STARLINK-3267,1 50197U 21125AT  22331.67466098 -.00001500  00000-0 -76118-4 0  9995,2 50197  53.2166 217.2309 0002765  43.0775 317.0433 15.08836108 55929,6917.892,95.438,541.67,537.844,0.0
50197.0,STARLINK-3267,PAYLOAD,2022-11-28 09:40:44,15.08843328,0.00025,53.2174,213.9615,38.8424,321.2747,4.3385e-05,4.02e-06,0.0,0 STARLINK-3267,1 50197U 21125AT  22332.40329334  .00000402  00000-0  43385-4 0  9996,2 50197  53.2174 213.9615 0002500  38.8424 321.2747 15.08843328 55502,6917.87,95.437,541.465,538.006,0.0
50197.0,STARLINK-3267,PAYLOAD,2022-11-29 01:34:36,15.08838078,0.0002617,53.217,210.9876,39.6253,320.493,-8.853600000000001e-05,-1.697e-05,0.0,0 STARLINK-3267,1 50197U 21125AT  22333.06570055 -.00001697  00000-0 -88536-4 0  9993,2 50197  53.2170 210.9876 0002617  39.6253 320.4930 15.08838078 55604,6917.886,95.438,541.562,537.941,0.0
50197.0,STARLINK-3267,PAYLOAD,2022-11-29 09:31:32,15.08834513,0.0002355,53.2174,209.5007,44.3413,315.7767,6.2474e-05,7.06e-06,0.0,0 STARLINK-3267,1 50197U 21125AT  22333.39689935  .00000706  00000-0  62474-4 0  9998,2 50197  53.2174 209.5007 0002355  44.3413 315.7767 15.08834513 56187,6917.897,95.438,541.391,538.133,0.0
50197.0,STARLINK-3267,PAYLOAD,2022-11-29 15:53:04,15.08837525,0.0002536,53.2173,208.3112,40.7459,319.3723,0.00013033,1.786e-05,0.0,0 STARLINK-3267,1 50197U 21125AT  22333.66185669  .00001786  00000-0  13033-3 0  9998,2 50197  53.2173 208.3112 0002536  40.7459 319.3723 15.08837525 56224,6917.888000000001,95.438,541.507,537.999,0.0
50197.0,STARLINK-3267,PAYLOAD,2022-11-30 01:25:23,15.08842203,0.0002563999999999,53.2169,206.528,37.2677,322.8492,0.00011662,1.568e-05,0.0,0 STARLINK-3267,1 50197U 21125AT  22334.05929458  .00001568  00000-0  11662-3 0  9998,2 50197  53.2169 206.5280 0002564  37.2677 322.8492 15.08842203 55757,6917.874,95.437,541.512,537.965,0.0
50197.0,STARLINK-3267,PAYLOAD,2022-11-30 15:43:52,15.08819701,0.0002658,53.2166,203.8534,35.5684,324.5485,0.0001754,2.503e-05,0.0,0 STARLINK-3267,1 50197U 21125AT  22334.65547059  .00002503  00000-0  17540-3 0  9998,2 50197  53.2166 203.8534 0002658  35.5684 324.5485 15.08819701 55847,6917.941999999999,95.439,541.646,537.969,0.0
50197.0,STARLINK-3267,PAYLOAD,2022-12-01 01:16:10,15.08838545,0.0002723,53.217,202.068,37.0484,323.0696,8.3029e-05,1.033e-05,0.0,0 STARLINK-3267,1 50197U 21125AT  22335.05290251  .00001033  00000-0  83029-4 0  9995,2 50197  53.2170 202.0680 0002723  37.0484 323.0696 15.08838545 55905,6917.885,95.438,541.634,537.866,0.0
50197.0,STARLINK-3267,PAYLOAD,2022-12-02 13:50:03,15.08839139,0.0002607,53.2162,195.2277,38.9782,321.1397,8.683100000000001e-05,1.094e-05,0.0,0 STARLINK-3267,1 50197U 21125AT  22336.57642519  .00001094  00000-0  86831-4 0  9992,2 50197  53.2162 195.2277 0002607  38.9782 321.1397 15.08839139 56136,6917.8830000000025,95.438,541.552,537.945,0.0
50197.0,STARLINK-3267,PAYLOAD,2022-12-03 13:40:50,15.08833336,0.000264,53.2161,190.7675,39.3245,320.7938,-7.7405e-06,-4.12e-06,0.0,0 STARLINK-3267,1 50197U 21125AT  22337.57003226 -.00000412  00000-0 -77405-5 0  9992,2 50197  53.2161 190.7675 0002640  39.3245 320.7938 15.08833336 56288,6917.901,95.438,541.592,537.939,0.0
50197.0,STARLINK-3267,PAYLOAD,2022-12-03 15:16:14,15.08830559,0.0002665,53.2164,190.4698,38.4803,321.6379,3.199e-06,-2.38e-06,0.0,0 STARLINK-3267,1 50197U 21125AT  22337.63627370 -.00000238  00000-0  31990-5 0  9995,2 50197  53.2164 190.4698 0002665  38.4803 321.6379 15.08830559 56823,6917.909000000002,95.438,541.618,537.931,0.0
50197.0,STARLINK-3267,PAYLOAD,2022-12-04 13:31:37,15.08835519,0.0002771,53.2157,186.3073,40.9484,319.1715,0.00013222,1.816e-05,0.0,0 STARLINK-3267,1 50197U 21125AT  22338.56362937  .00001816  00000-0  13222-3 0  9991,2 50197  53.2157 186.3073 0002771  40.9484 319.1715 15.08835519 56969,6917.894,95.438,541.6759999999998,537.842,0.0
50197.0,STARLINK-3267,PAYLOAD,2022-12-04 23:03:55,15.0884639,0.0002798,53.2161,184.5232,40.9575,319.1626,5.8922e-05,6.49e-06,0.0,0 STARLINK-3267,1 50197U 21125AT  22338.96106354  .00000649  00000-0  58922-4 0  9994,2 50197  53.2161 184.5232 0002798  40.9575 319.1626 15.08846390 56499,6917.861,95.437,541.661,537.79,0.0
50197.0,STARLINK-3267,PAYLOAD,2022-12-05 13:22:24,15.08837274,0.0002702,53.2159,181.8467,42.7564,317.3638,9.1409e-05,1.167e-05,0.0,0 STARLINK-3267,1 50197U 21125AT  22339.55722841  .00001167  00000-0  91409-4 0  9998,2 50197  53.2159 181.8467 0002702  42.7564 317.3638 15.08837274 56583,6917.889,95.438,541.623,537.885,0.0
50197.0,STARLINK-3267,PAYLOAD,2022-12-05 19:43:57,15.08836107,0.0002701,53.2162,180.6572,43.3837,316.7367,3.2927e-05,2.36e-06,0.0,0 STARLINK-3267,1 50197U 21125AT  22339.82219142  .00000236  00000-0  32927-4 0  9999,2 50197  53.2162 180.6572 0002701  43.3837 316.7367 15.08836107 57150,6917.892,95.438,541.626,537.889,0.0
